[{"OBJECT_NAME":"STARLINK-31268","OBJECT_ID":"2024-049Q","EPOCH":"2026-03-09T22:00:01.999584","MEAN_MOTION":15.80181847,"ECCENTRICITY":0.00239404,"INCLINATION":42.9822,"RA_OF_ASC_NODE":121.2463,"ARG_OF_PERICENTER":68.2784,"MEAN_ANOMALY":176.6479,"EPHEMERIS_TYPE":0,"CLASSIFICATION_TYPE":"U","NORAD_CAT_ID":59245,"ELEMENT_SET_NO":999,"REV_AT_EPOCH":593,"BSTAR":0.00074266557,"MEAN_MOTION_DOT":0.00148493,"MEAN_MOTION_DDOT":0},{"OBJECT_NAME":"STARLINK-36357","OBJECT_ID":"2026-038C","EPOCH":"2026-03-09T22:00:01.999584","MEAN_MOTION":15.87180152,"ECCENTRICITY":0.00013271,"INCLINATION":97.2737,"RA_OF_ASC_NODE":79.2096,"ARG_OF_PERICENTER":82.0749,"MEAN_ANOMALY":178.8421,"EPHEMERIS_TYPE":0,"CLASSIFICATION_TYPE":"U","NORAD_CAT_ID":67963,"ELEMENT_SET_NO":999,"REV_AT_EPOCH":323,"BSTAR":-0.0067510266,"MEAN_MOTION_DOT":-0.01542043,"MEAN_MOTION_DDOT":0}]
